{
  "type": "FeatureCollection",
  "features": [
    {
      "type": "Feature",
      "properties": {
        "norad_id": 37846,
        "name": "GSAT0101 (GALILEO-PFM)",
        "group": "galileo",
        "lat": 27.73976952099426,
        "lon": 146.9605969598545,
        "alt_km": 23226.921482904465,
        "timestamp": "2025-12-09T14:52:26.424711+00:00",
        "meta_object_name": "GSAT0101 (GALILEO-PFM)",
        "meta_object_id": "2011-060A",
        "meta_epoch": "2025-12-06T10:45:46.943136",
        "meta_mean_motion": 1.70475516,
        "meta_eccentricity": 0.00028809,
        "meta_inclination": 57.0541,
        "meta_ra_of_asc_node": 346.9907,
        "meta_arg_of_pericenter": 311.6243,
        "meta_mean_anomaly": 48.3737,
        "meta_ephemeris_type": 0,
        "meta_classification_type": "U",
        "meta_norad_cat_id": 37846,
        "meta_element_set_no": 999,
        "meta_rev_at_epoch": 8783,
        "meta_bstar": 0,
        "meta_mean_motion_dot": -8.1e-07,
        "meta_mean_motion_ddot": 0,
        "tle_line1": "1 37846U 11060A   25340.44845999 -.00000081  00000+0  00000+0 0  9990",
        "tle_line2": "2 37846  57.0541 346.9907 0002880 311.6243  48.3737  1.70475516 87832"
      },
      "geometry": {
        "type": "Point",
        "coordinates": [
          146.9605969598545,
          27.73976952099426
        ]
      }
    },
    {
      "type": "Feature",
      "properties": {
        "norad_id": 37847,
        "name": "GSAT0102 (GALILEO-FM2)",
        "group": "galileo",
        "lat": -9.822152641203365,
        "lon": 173.3495552209912,
        "alt_km": 23229.992028694036,
        "timestamp": "2025-12-09T14:52:26.424735+00:00",
        "meta_object_name": "GSAT0102 (GALILEO-FM2)",
        "meta_object_id": "2011-060B",
        "meta_epoch": "2025-12-09T00:17:40.053696",
        "meta_mean_motion": 1.70475785,
        "meta_eccentricity": 0.00049091,
        "meta_inclination": 57.0543,
        "meta_ra_of_asc_node": 346.9214,
        "meta_arg_of_pericenter": 308.1942,
        "meta_mean_anomaly": 230.7315,
        "meta_ephemeris_type": 0,
        "meta_classification_type": "U",
        "meta_norad_cat_id": 37847,
        "meta_element_set_no": 999,
        "meta_rev_at_epoch": 8788,
        "meta_bstar": 0,
        "meta_mean_motion_dot": -8.7e-07,
        "meta_mean_motion_ddot": 0,
        "tle_line1": "1 37847U 11060B   25343.01226914 -.00000087  00000+0  00000+0 0  9993",
        "tle_line2": "2 37847  57.0543 346.9214 0004909 308.1942 230.7315  1.70475785 87889"
      },
      "geometry": {
        "type": "Point",
        "coordinates": [
          173.3495552209912,
          -9.822152641203365
        ]
      }
    },
    {
      "type": "Feature",
      "properties": {
        "norad_id": 38857,
        "name": "GSAT0103 (GALILEO-FM3)",
        "group": "galileo",
        "lat": 44.67391958310137,
        "lon": -115.67052313271026,
        "alt_km": 23222.983448340437,
        "timestamp": "2025-12-09T14:52:26.424750+00:00",
        "meta_object_name": "GSAT0103 (GALILEO-FM3)",
        "meta_object_id": "2012-055A",
        "meta_epoch": "2025-12-06T11:43:28.953984",
        "meta_mean_motion": 1.7047325,
        "meta_eccentricity": 0.00024686,
        "meta_inclination": 55.6879,
        "meta_ra_of_asc_node": 106.8382,
        "meta_arg_of_pericenter": 267.747,
        "meta_mean_anomaly": 92.1776,
        "meta_ephemeris_type": 0,
        "meta_classification_type": "U",
        "meta_norad_cat_id": 38857,
        "meta_element_set_no": 999,
        "meta_rev_at_epoch": 8172,
        "meta_bstar": 0,
        "meta_mean_motion_dot": 7e-08,
        "meta_mean_motion_ddot": 0,
        "tle_line1": "1 38857U 12055A   25340.48852956  .00000007  00000+0  00000+0 0  9990",
        "tle_line2": "2 38857  55.6879 106.8382 0002468 267.7470  92.1776  1.70473250 81723"
      },
      "geometry": {
        "type": "Point",
        "coordinates": [
          -115.67052313271026,
          44.67391958310137
        ]
      }
    },
    {
      "type": "Feature",
      "properties": {
        "norad_id": 40128,
        "name": "GSAT0201 (GALILEO 5)",
        "group": "galileo",
        "lat": -26.65970255706635,
        "lon": -104.60384250512031,
        "alt_km": 25455.664990534104,
        "timestamp": "2025-12-09T14:52:26.424763+00:00",
        "meta_object_name": "GSAT0201 (GALILEO 5)",
        "meta_object_id": "2014-050A",
        "meta_epoch": "2025-12-07T12:54:32.900256",
        "meta_mean_motion": 1.85519488,
        "meta_eccentricity": 0.16474216,
        "meta_inclination": 49.0828,
        "meta_ra_of_asc_node": 281.2757,
        "meta_arg_of_pericenter": 172.085,
        "meta_mean_anomaly": 190.9173,
        "meta_ephemeris_type": 0,
        "meta_classification_type": "U",
        "meta_norad_cat_id": 40128,
        "meta_element_set_no": 999,
        "meta_rev_at_epoch": 7476,
        "meta_bstar": 0,
        "meta_mean_motion_dot": -5.9e-07,
        "meta_mean_motion_ddot": 0,
        "tle_line1": "1 40128U 14050A   25341.53788079 -.00000059  00000+0  00000+0 0  9990",
        "tle_line2": "2 40128  49.0828 281.2757 1647421 172.0850 190.9173  1.85519488 74761"
      },
      "geometry": {
        "type": "Point",
        "coordinates": [
          -104.60384250512031,
          -26.65970255706635
        ]
      }
    },
    {
      "type": "Feature",
      "properties": {
        "norad_id": 40129,
        "name": "GSAT0202 (GALILEO 6)",
        "group": "galileo",
        "lat": 35.13408532532379,
        "lon": 62.72620087061323,
        "alt_km": 17878.44414814476,
        "timestamp": "2025-12-09T14:52:26.424776+00:00",
        "meta_object_name": "GSAT0202 (GALILEO 6)",
        "meta_object_id": "2014-050B",
        "meta_epoch": "2025-12-08T20:55:50.636640",
        "meta_mean_motion": 1.85520286,
        "meta_eccentricity": 0.16482545,
        "meta_inclination": 49.097,
        "meta_ra_of_asc_node": 280.3049,
        "meta_arg_of_pericenter": 172.8865,
        "meta_mean_anomaly": 189.8198,
        "meta_ephemeris_type": 0,
        "meta_classification_type": "U",
        "meta_norad_cat_id": 40129,
        "meta_element_set_no": 999,
        "meta_rev_at_epoch": 7695,
        "meta_bstar": 0,
        "meta_mean_motion_dot": -6.8e-07,
        "meta_mean_motion_ddot": 0,
        "tle_line1": "1 40129U 14050B   25342.87211385 -.00000068  00000+0  00000+0 0  9990",
        "tle_line2": "2 40129  49.0970 280.3049 1648254 172.8865 189.8198  1.85520286 76958"
      },
      "geometry": {
        "type": "Point",
        "coordinates": [
          62.72620087061323,
          35.13408532532379
        ]
      }
    },
    {
      "type": "Feature",
      "properties": {
        "norad_id": 40544,
        "name": "GSAT0203 (GALILEO 7)",
        "group": "galileo",
        "lat": -54.82507485642389,
        "lon": -81.28665773419601,
        "alt_km": 23208.957407168786,
        "timestamp": "2025-12-09T14:52:26.424788+00:00",
        "meta_object_name": "GSAT0203 (GALILEO 7)",
        "meta_object_id": "2015-017A",
        "meta_epoch": "2025-12-07T23:40:17.785344",
        "meta_mean_motion": 1.70475803,
        "meta_eccentricity": 0.00065197,
        "meta_inclination": 56.8473,
        "meta_ra_of_asc_node": 346.8097,
        "meta_arg_of_pericenter": 270.7442,
        "meta_mean_anomaly": 89.1988,
        "meta_ephemeris_type": 0,
        "meta_classification_type": "U",
        "meta_norad_cat_id": 40544,
        "meta_element_set_no": 999,
        "meta_rev_at_epoch": 6594,
        "meta_bstar": 0,
        "meta_mean_motion_dot": -8.6e-07,
        "meta_mean_motion_ddot": 0,
        "tle_line1": "1 40544U 15017A   25341.98631696 -.00000086  00000+0  00000+0 0  9997",
        "tle_line2": "2 40544  56.8473 346.8097 0006519 270.7442  89.1988  1.70475803 65948"
      },
      "geometry": {
        "type": "Point",
        "coordinates": [
          -81.28665773419601,
          -54.82507485642389
        ]
      }
    },
    {
      "type": "Feature",
      "properties": {
        "norad_id": 40545,
        "name": "GSAT0204 (GALILEO 8)",
        "group": "galileo",
        "lat": 42.88768224158553,
        "lon": 129.40699162304858,
        "alt_km": 23230.30156416611,
        "timestamp": "2025-12-09T14:52:26.424799+00:00",
        "meta_object_name": "GSAT0204 (GALILEO 8)",
        "meta_object_id": "2015-017B",
        "meta_epoch": "2025-12-08T05:48:09.490464",
        "meta_mean_motion": 1.70475483,
        "meta_eccentricity": 0.00062708,
        "meta_inclination": 56.8542,
        "meta_ra_of_asc_node": 346.8204,
        "meta_arg_of_pericenter": 261.7403,
        "meta_mean_anomaly": 98.2059,
        "meta_ephemeris_type": 0,
        "meta_classification_type": "U",
        "meta_norad_cat_id": 40545,
        "meta_element_set_no": 999,
        "meta_rev_at_epoch": 2899,
        "meta_bstar": 0,
        "meta_mean_motion_dot": -8.6e-07,
        "meta_mean_motion_ddot": 0,
        "tle_line1": "1 40545U 15017B   25342.24177651 -.00000086  00000+0  00000+0 0  9994",
        "tle_line2": "2 40545  56.8542 346.8204 0006270 261.7403  98.2059  1.70475483 28995"
      },
      "geometry": {
        "type": "Point",
        "coordinates": [
          129.40699162304858,
          42.88768224158553
        ]
      }
    }
  ]
}